C/2021 A1 (Leonard),h,01/03.3020/2022,132.6862,255.8802,225.0897,1.000064,0.615100,2000,8.5,4.0
# From MPEC 2021-BE3
C/2021 A2,h,01/22.7079/2021,107.0292,125.2199,338.8885,1.001046,1.413521,2000,13.5,4.0
# From MPEC 2021-BE3
C/2021 A4 (NEOWISE),e,111.5847,307.0768,204.6258,45.41071,0.0032208,0.97477009,0.0000,03/19.9986/2021,2000,g 16.0,4.0
# From MPEC 2021-BE3
P/2021 A5 (PANSTARRS),e,18.1881,328.7679,61.0655,3.045693,0.1854278,0.13956462,21.9996,03/10.0/2021,2000,g 15.0,4.0
# From MPEC 2021-BE3
C/2021 A6 (PANSTARRS),e,75.5784,164.0869,351.3007,4321,0.0000035,0.99816445,0.0000,04/27.9207/2021,2000,g  7.0,4.0
# From MPEC 2021-BE3
C/2021 A7 (NEOWISE),e,78.1423,154.5386,356.0700,740.1074,0.0000490,0.99734024,0.0000,07/15.5063/2021,2000,g 10.0,4.0
# From MPEC 2021-BE3
C/2021 A9 (PANSTARRS),h,11/24.4467/2023,158.0896,314.7664,211.7436,1.036767,7.704590,2000,6.0,4.0
# From MPEC 2021-C25
C/2021 A10 (NEOWISE),e,151.5246,188.3490,82.2656,93.79200,0.0010851,0.98647495,0.0000,03/15.2634/2021,2000,g 19.0,4.0
# From MPEC 2021-BE3
C/2021 B2 (PANSTARRS),e,38.1385,120.4361,334.8730,436.0372,0.0001082,0.99422184,0.0000,05/04.1022/2021,2000,g 14.0,4.0
# From MPEC 2021-C16
C/2021 B3 (NEOWISE),e,119.5037,67.3325,293.6935,31.03165,0.0057016,0.93045078,359.9990,03/11.0/2021,2000,g 13.5,4.0
# From MPEC 2021-DA2
C/2021 C1 (Rankin),h,12/14.3589/2020,143.2540,186.8859,337.7752,1.038334,3.505416,2000,11.5,4.0
# From MPEC 2021-DA3
P/2021 C2 (PANSTARRS),e,21.9236,66.4595,79.3405,9.538242,0.0334581,0.48734074,0.3022,03/10.0/2021,2000,g 12.0,4.0
# From MPEC 2021-DB2
C/2021 C3 (Catalina),e,122.1508,181.9173,357.1170,60.82536,0.0020777,0.96257813,0.0533,03/10.0/2021,2000,g 14.0,4.0
# From MPEC 2021-DB3
C/2021 C4 (ATLAS),h,01/21.0651/2021,132.8528,194.2613,320.8079,1.000123,4.504151,2000,9.0,4.0
# From MPEC 2021-K64
C/2021 C5 (PANSTARRS),h,02/10.7384/2023,50.7990,323.6899,270.9158,1.000301,3.240536,2000,9.0,4.0
# From MPEC 2021-E19
C/2021 D1 (SWAN),e,31.5605,311.4170,72.1802,18.07675,0.0128240,0.95051398,0.1343,03/10.0/2021,2000,g 13.0,4.0
# From  98, 1083
1P/Halley,e,162.2731,58.5556,111.4926,17.87237,0.0130446,0.96615374,167.2700,03/10.0/2021,2000,g  4.0,6.0
# From MPC118097
2P/Encke,e,11.7761,334.5307,186.5862,2.216517,0.2986740,0.84821102,76.7825,03/10.0/2021,2000,g 11.5,6.0
# From MPEC 2015-A10
4P/Faye,e,8.0111,192.9713,206.9518,3.826888,0.1316544,0.57697036,335.8559,03/10.0/2021,2000,g  8.0,6.0
# From MPEC 2015-S97
6P/d'Arrest,e,19.5124,138.9357,178.1081,3.497255,0.1507000,0.61265523,331.0990,03/10.0/2021,2000,g  9.0,4.0
# From MPEC 2015-E14
7P/Pons-Winnecke,e,22.3635,93.3758,172.5926,3.413970,0.1562480,0.63847033,347.7956,03/10.0/2021,2000,g  9.0,4.0
# From MPEC 2021-BE3
8P/Tuttle,e,54.9116,270.2035,207.4912,5.706049,0.0723104,0.82018794,347.6533,03/10.0/2021,2000,g  8.0,8.0
# From MPEC 2019-JE2
9P/Tempel,e,10.4701,68.7250,179.3290,3.147087,0.1765391,0.50933912,296.4627,03/10.0/2021,2000,g  9.0,4.0
# From MPC114607
10P/Tempel,e,12.0397,117.8097,195.5067,3.061613,0.1839834,0.53864854,357.3731,03/10.0/2021,2000,g  5.0,10.0
# From MPEC 2017-L52
11P/Tempel-Swift-LINEAR,e,14.4206,238.9151,167.9488,3.283174,0.1656774,0.57699840,17.1928,03/10.0/2021,2000,g  9.0,4.0
# From  27, 604
12P/Pons-Brooks,e,74.1071,255.7433,199.0154,17.11992,0.0139140,0.95434312,344.1676,03/10.0/2021,2000,g  5.0,6.0
# From  27, 604
13P/Olbers,e,44.6244,85.8844,64.4871,16.69947,0.0144428,0.92971229,342.5324,03/10.0/2021,2000,g  5.0,6.0
# From MPC100283
14P/Wolf,e,27.9085,202.0624,158.9972,4.258840,0.1121417,0.35685588,133.8417,03/10.0/2021,2000,g  5.5,12.0
# From MPC 92276
15P/Finlay,e,6.7973,13.7186,347.8259,3.505630,0.1501603,0.71704895,341.1480,03/10.0/2021,2000,g 12.0,4.0
# From MPC 92276
16P/Brooks,e,3.0119,138.8701,245.1687,3.655729,0.1410078,0.48626399,354.4789,03/10.0/2021,2000,g  7.5,10.0
# From MPEC 2020-SI8
17P/Holmes,e,19.0320,326.6201,24.4686,3.636035,0.1421550,0.42775898,2.5835,03/10.0/2021,2000,g 10.0,6.0
# From MPC 92984
19P/Borrelly,e,29.3182,74.2997,351.8604,3.606981,0.1438760,0.63790417,312.6995,03/10.0/2021,2000,g  4.5,10.0
# From MPC111773
21P/Giacobini-Zinner,e,32.0273,195.3538,172.8521,3.495750,0.1507973,0.71085257,137.4410,03/10.0/2021,2000,g  9.0,6.0
# From MPC 94283
22P/Kopff,e,4.7420,120.8373,162.9859,3.441937,0.1543476,0.54887617,302.4198,03/10.0/2021,2000,g  3.0,10.4
# From MPC 14747
23P/Brorsen-Metcalf,e,19.1294,312.4343,128.7949,16.95181,0.0141215,0.97121566,0.0000,08/07.3731/1989,2000,g 10.0,6.0
# From MPC110085
24P/Schaumasse,e,11.5731,78.8566,58.0667,4.053008,0.1207919,0.70880505,146.2636,03/10.0/2021,2000,g  6.5,14.0
# From MPC 94674
26P/Grigg-Skjellerup,e,22.4380,211.5406,2.1875,3.014127,0.1883483,0.64044966,167.7425,03/10.0/2021,2000,g 12.0,16.0
# From MPC 78188
27P/Crommelin,e,29.1749,250.5941,195.9634,9.187006,0.0353951,0.91812655,124.5028,03/10.0/2021,2000,g 12.0,8.0
# From MPEC 2020-SI8
28P/Neujmin,e,14.3118,346.3323,347.4110,6.979949,0.0534473,0.77388599,359.8993,03/10.0/2021,2000,g  8.5,6.0
# From MPEC 2020-U96
29P/Schwassmann-Wachmann,e,9.3668,312.3742,48.8387,6.036862,0.0664488,0.04447934,47.7554,03/10.0/2021,2000,g  4.0,4.0
# From MPC110085
30P/Reinmuth,e,8.4746,118.7878,10.0877,3.669594,0.1402093,0.53344785,183.9465,03/10.0/2021,2000,g  9.5,6.0
# From MPC108597
31P/Schwassmann-Wachmann,e,4.5473,114.1137,18.1866,4.239609,0.1129056,0.19222756,69.3148,03/10.0/2021,2000,g  5.0,8.0
# From MPC 92276
32P/Comas Sola,e,9.8957,56.9016,53.8672,4.497689,0.1033285,0.55943107,242.1062,03/10.0/2021,2000,g  6.5,8.0
# From MPEC 2013-O31
33P/Daniel,e,22.3076,66.3325,20.5748,4.084497,0.1193978,0.45185202,199.5586,03/10.0/2021,2000,g 10.0,12.0
# From  15, 452
35P/Herschel-Rigollet,e,65.007,356.564,29.005,28.5635,0.006456,0.9737180,0.000,12/27.8225/2091,2000,g  9.0,4.0
# From MPEC 2020-SI8
36P/Whipple,e,9.9517,181.8566,200.8194,4.132376,0.1173287,0.26875553,33.1044,03/10.0/2021,2000,g  8.5,6.0
# From MPEC 2018-HA5
37P/Forbes,e,8.9576,314.5594,330.1092,3.459923,0.1531456,0.53394387,159.3767,03/10.0/2021,2000,g 10.5,4.8
# From MPEC 2018-S50
38P/Stephan-Oterma,e,18.3583,77.9787,359.5194,11.24390,0.0261414,0.85893518,22.2222,03/10.0/2021,2000,g  3.5,12.0
# From MPEC 2020-W26
39P/Oterma,e,1.5603,299.2346,95.5807,7.395057,0.0490108,0.22408517,320.7824,03/10.0/2021,2000,g  7.0,6.0
# From MPC100283
40P/Vaisala,e,11.4693,133.7782,47.4424,4.951740,0.0894473,0.62971321,206.6575,03/10.0/2021,2000,g  5.5,12.0
# From MPC105240
41P/Tuttle-Giacobini-Kresak,e,9.2209,140.9894,62.2545,3.086710,0.1817441,0.66007071,259.6027,03/10.0/2021,2000,g 10.0,16.0
# From MPC 94283
42P/Neujmin,e,3.9904,150.1811,147.2036,4.872953,0.0916254,0.58541526,197.8561,03/10.0/2021,2000,g 13.0,6.0
# From MPC102956
43P/Wolf-Harrington,e,9.3513,244.2345,224.1200,4.312303,0.1100627,0.43668784,182.7324,03/10.0/2021,2000,g  8.0,6.0
# From MPEC 2020-HN5
44P/Reinmuth,e,5.8985,286.4799,58.1408,3.688717,0.1391205,0.42730143,303.0305,03/10.0/2021,2000,g  8.3,6.0
# From MPC103849
45P/Honda-Mrkos-Pajdusakova,e,4.3239,87.7057,327.9316,3.051159,0.1849297,0.81752065,283.8886,03/10.0/2021,2000,g 13.5,8.0
# From MPC114607
46P/Wirtanen,e,11.7433,82.1576,356.3503,3.091555,0.1813170,0.65822725,148.4052,03/10.0/2021,2000,g 14.0,6.0
# From MPEC 2021-BE3
47P/Ashbrook-Jackson,e,13.0379,356.9219,357.6191,4.124419,0.1176684,0.31821765,160.9555,03/10.0/2021,2000,g  1.0,11.2
# From MPEC 2015-M77
48P/Johnson,e,12.2073,110.1260,216.6417,3.500740,0.1504749,0.42741366,141.4925,03/10.0/2021,2000,g  9.0,4.0
# From MPEC 2020-K19
49P/Arend-Rigaux,e,19.0459,118.7971,332.9603,3.569959,0.1461199,0.59829481,141.6564,03/10.0/2021,2000,g 11.3,4.4
# From MPEC 2015-S97
50P/Arend,e,19.0996,355.1690,49.3178,4.089052,0.1191983,0.52882347,221.6516,03/10.0/2021,2000,g  9.5,6.0
# From NK 3013
51P-A/Harrington,e,5.4260,83.6653,269.2716,3.707553,0.1380616,0.54325358,281.1878,03/10.0/2021,2000,g 16.0,8.0
# From NK 3014
51P-A/Harrington,e,5.4253,83.6808,269.2324,3.708569,0.1380049,0.54332668,280.9192,03/10.0/2021,2000,g 10.0,8.0
# From NK 3014
51P-A/Harrington,e,5.4253,83.6808,269.2324,3.708551,0.1380059,0.54332357,280.9227,03/10.0/2021,2000,g 10.0,8.0
# From MPEC 2015-L08
51P-D/Harrington,e,5.4268,83.6708,269.2217,3.707641,0.1380567,0.54326780,281.1818,03/10.0/2021,2000,g 16.0,8.0
# From MPEC 2015-L08
51P-D/Harrington,e,5.4268,83.6698,269.2225,3.707629,0.1380574,0.54326836,281.1871,03/10.0/2021,2000,g 16.0,8.0
# From NK 3013
51P-D/Harrington,e,5.4261,83.6656,269.2713,3.707553,0.1380617,0.54325377,281.1880,03/10.0/2021,2000,g 16.0,8.0
# From NK 3013
51P-D/Harrington,e,5.4261,83.6656,269.2713,3.707553,0.1380616,0.54325390,281.1880,03/10.0/2021,2000,g 16.0,8.0
# From MPC 88330
52P/Harrington-Abell,e,10.2317,336.8388,139.6004,3.863022,0.1298116,0.53994282,332.8421,03/10.0/2021,2000,g 13.5,6.0
# From MPC100283
53P/Van Biesbroeck,e,6.6090,148.8181,134.4569,5.426495,0.0779695,0.55201164,138.3185,03/10.0/2021,2000,g  7.7,4.8
# From MPC 89011
54P/de Vico-Swift-NEAT,e,6.0634,358.8143,1.7713,3.792096,0.1334704,0.42582497,189.9850,03/10.0/2021,2000,g  9.0,4.0
# From MPC 31070
55P/Tempel-Tuttle,e,162.4136,235.4056,172.5150,10.35269,0.0295886,0.90633937,249.9043,03/10.0/2021,2000,g  9.0,4.0
# From MPC101100
56P/Slaughter-Burnham,e,8.1602,345.9905,43.9885,5.070217,0.0863305,0.50729571,146.3280,03/10.0/2021,2000,g  8.5,6.0
# From MPC 98565
57P/du Toit-Neujmin-Delporte,e,2.8509,188.7784,115.2554,3.446033,0.1540724,0.50081775,325.8821,03/10.0/2021,2000,g 12.5,6.0
# From MPEC 2020-SI8
58P/Jackson-Neujmin,e,13.1103,159.0767,200.4488,4.081004,0.1195511,0.66247715,34.2586,03/10.0/2021,2000,g 15.5,6.0
# From MPC111774
59P/Kearns-Kwee,e,9.3415,312.8349,127.5631,4.487472,0.1036815,0.47495521,93.8909,03/10.0/2021,2000,g  7.0,6.0
# From MPEC 2015-M77
60P/Tsuchinshan,e,3.5939,267.5680,216.9189,3.521877,0.1491224,0.53547711,122.3931,03/10.0/2021,2000,g  9.0,4.0
# From MPEC 2015-Q71
61P/Shajn-Schaldach,e,5.9987,162.9805,221.8525,3.686079,0.1392699,0.42387400,277.3596,03/10.0/2021,2000,g  6.0,10.0
# From MPC109147
